{
    "links": {
        "self": "http://www.neowsapp.com/rest/v1/neo/3406336?api_key=iIulBulltgU6a56xZRHN4H3l9WmuAYTsLGpBGhQ2"
    },
    "id": "3406336",
    "neo_reference_id": "3406336",
    "name": "(2008 EH85)",
    "designation": "2008 EH85",
    "nasa_jpl_url": "http://ssd.jpl.nasa.gov/sbdb.cgi?sstr=3406336",
    "absolute_magnitude_h": 23.8,
    "estimated_diameter": {
        "kilometers": {
            "estimated_diameter_min": 0.046190746,
            "estimated_diameter_max": 0.1032856481
        },
        "meters": {
            "estimated_diameter_min": 46.1907460282,
            "estimated_diameter_max": 103.2856480504
        },
        "miles": {
            "estimated_diameter_min": 0.0287015901,
            "estimated_diameter_max": 0.0641787064
        },
        "feet": {
            "estimated_diameter_min": 151.544447199,
            "estimated_diameter_max": 338.8636855496
        }
    },
    "is_potentially_hazardous_asteroid": false,
    "close_approach_data": [
        {
            "close_approach_date": "2008-03-23",
            "close_approach_date_full": "2008-Mar-23 08:32",
            "epoch_date_close_approach": 1206261120000,
            "relative_velocity": {
                "kilometers_per_second": "13.8571749656",
                "kilometers_per_hour": "49885.8298761755",
                "miles_per_hour": "30997.1146805603"
            },
            "miss_distance": {
                "astronomical": "0.1945926439",
                "lunar": "75.6965384771",
                "kilometers": "29110645.045108493",
                "miles": "18088516.0553954834"
            },
            "orbiting_body": "Earth"
        }
    ],
    "orbital_data": {
        "orbit_id": "6",
        "orbit_determination_date": "2017-04-06 09:03:58",
        "first_observation_date": "2008-03-13",
        "last_observation_date": "2008-03-15",
        "data_arc_in_days": 2,
        "observations_used": 20,
        "orbit_uncertainty": "9",
        "minimum_orbit_intersection": ".0765144",
        "jupiter_tisserand_invariant": "5.432",
        "epoch_osculation": "2454539.5",
        "eccentricity": ".2659102493766221",
        "semi_major_axis": "1.126161762624949",
        "inclination": "25.2262008688622",
        "ascending_node_longitude": "352.3181302722112",
        "orbital_period": "436.5154230446025",
        "perihelion_distance": ".8267038074869327",
        "perihelion_argument": "301.049974474162",
        "aphelion_distance": "1.425619717762966",
        "perihelion_time": "2454649.589174690559",
        "mean_anomaly": "269.2080123717606",
        "mean_motion": ".8247131280931068",
        "equinox": "J2000",
        "orbit_class": {
            "orbit_class_type": "APO",
            "orbit_class_description": "Near-Earth asteroid orbits which cross the Earth’s orbit similar to that of 1862 Apollo",
            "orbit_class_range": "a (semi-major axis) > 1.0 AU; q (perihelion) < 1.017 AU"
        }
    },
    "is_sentry_object": false
}